#dP2021  1 15  0  0  0.00000000      96 __u+U ITR00 FIT  IAC
## 2140 432000.00000000   900.00000000 59229 0.0000000000000
+  118   C01C02C03C04C05C06C07C08C09C10C11C12C13C14C16C19C20
+        C21C22C23C24C25C26C27C28C29C30C32C33C34C35C36C37C40
+        E01E02E03E04E05E07E08E09E11E12E13E14E15E18E19E21E24
+        E25E26E27E30E31E33E36G01G02G03G04G05G06G07G08G09G10
+        G11G12G13G14G15G16G17G18G19G20G21G22G23G24G25G26G27
+        G28G29G30G31G32J01J02J03J07R01R02R03R04R05R06R07R08
+        R09R10R11R12R13R14R15R16R17R18R19R20R21R22R23R24  0
++         0 13 13 15 13  8  8  9  0  8  8  8  8  8  8  8  8
++         8  8  8  8  8  8  8  8  8  8  9  8  8  9  9  8  0
++         4  4  5  5  5  4  4  5  5  5  4  4  5  5  4  4  4
++         4  4  4  5  5  4  5  4  4  4  4  4  4  4  4  4  4
++         4  4  4  3  4  4  4  4  4  4  4  4  4  4  4  4  4
++         4  4  4  4  4  9  8  8 14  6  6  6  6  6 13  6  6
++         6 13  8  6  6  6  6  6  6  6  7  7  6  7  0  6  0
%c M  cc GPS ccc cccc cccc cccc cccc ccccc ccccc ccccc ccccc
%c cc cc ccc ccc cccc cccc cccc cccc ccccc ccccc ccccc ccccc
%f  0.0000000  0.000000000  0.00000000000  0.000000000000000
%f  0.0000000  0.000000000  0.00000000000  0.000000000000000
%i    0    0    0    0      0      0      0      0         0
%i    0    0    0    0      0      0      0      0         0
/* INFORMATION & ANALYSIS CENTER (IAC)            RAPID DATA
/* S/V CLOCKS ARE ALIGNED TO GNSS TIME                      
/* G:C1WC2W R:C1PC2P E:C1XC5X C:C2IC6I J:C1CC2S             
/* PCV:IGS14_2134 OL/AL:FES2004  NONE     YN ORB:CoN CLK:CoN
*  2021 01 15  3 45  0.00000000
PC01      0.000000      0.000000      0.000000 999999.999999
PC02   4482.492430  41925.691293    199.481494    593.306530
PC03 -14764.329265  39521.010246   -770.934755 999999.999999
PC04 -39646.969630  14334.018883   -652.142789   -407.284382
PC05  21898.650321  36028.029010    528.977202   -554.613195
PC06 -15477.697126  21566.413095  33090.554526      6.256314
PC07 -20298.169323  36820.809871  -5424.734676   -228.248796
PC08  -4719.518956  31595.147122 -27182.817248   -897.223043
PC09      0.000000      0.000000      0.000000 999999.999999
PC10 -10358.474129  37760.459063 -15968.827070   -103.883738
PC11  15690.893198  -9178.937993  21228.324240   -886.973266
PC12  26440.176920   3357.820249   8276.622468    730.552183
PC13   5749.700295  38773.633213 -15059.839400     98.288581
PC14  20144.512764 -19228.792433  -1275.851077    -94.058274
PC16 -14263.858639  21391.267149  33464.194267   -660.320068
PC19 -13733.034855  21979.383101  10382.789374    691.326515
PC20 -22960.269583  14432.894001  -6617.859928   -909.492309
PC21  18854.473088   2174.840206  20466.149737   -793.516298
PC22   3669.462901  17002.943794  21825.754723   -845.125553
PC23  -8447.856501 -26214.133566   4529.433337   -881.469927
PC24  14694.955015  -8011.493716 -22344.635812   -742.115852
PC25   3413.338045 -24845.350867 -12272.163428   -897.759486
PC26  16611.243292  11486.776574 -19250.305336    962.799605
PC27 -26052.353772  -9917.514788   1047.384537    466.600116
PC28 -13778.677721 -17303.118754  17025.112086   -121.603213
PC29  -5967.447562  14762.796654 -22918.717790    338.728364
PC30 -23146.450141   3787.509657 -15102.755638    431.374489
PC32 -18873.686211  -2035.058166 -20444.782709   -883.630800
PC33  13683.374392 -22037.126916 -10273.540009   -915.465853
PC34  22801.177722  -4194.501496  15547.421089   -762.905466
PC35  14112.761357  16905.916965 -17159.231404   -465.158043
PC36  -4223.909915  24568.354003  12553.883878   -776.896879
PC37 -16210.266435 -12766.316075  18812.761289   -860.633855
PC40      0.000000      0.000000      0.000000 999999.999999
PE01  -8857.505045 -19568.104106  20373.751784  -1025.013728
PE02   8939.479166  19441.775760 -20442.121423    191.123619
PE03  16733.266078  11350.705633  21607.710501   -387.457228
PE04 -28471.862637   1877.481707  -7871.271491   -689.076591
PE05  -4990.130108  18113.745195  22868.803089   -312.813661
PE07  23598.210576 -14246.179243 -10778.273527   -487.821425
PE08  28502.766624  -2294.573079   7626.290843   6061.875272
PE09 -23454.222503  14374.891846  10943.020275   5798.726214
PE11 -12869.549064  10056.708138 -24683.562504   6468.401685
PE12 -23509.869699  -8572.115678 -15789.613643   5406.199829
PE13  13112.045884  -9701.476986  24712.694244    410.277072
PE14  24993.672464  -2299.199721   3301.677814  -1295.136361
PE15  23509.171335   8464.558601  15885.146113    834.222485
PE18 -24195.833582  12479.763509 -16124.237624  -1415.492944
PE19 -14494.766479 -12473.504491 -22594.139051    178.694905
PE21   4090.875067 -28850.963588   5236.509288   -642.916020
PE24 -15449.521996  21078.255467  13858.108701   -690.187432
PE25  -4209.556781  28850.533554  -5065.380858   -524.348904
PE26  -5405.016061 -22489.789618  18485.278107   2264.028132
PE27  15108.335791 -21660.243497 -13383.897969     50.896522
PE30  17115.019076   -852.666887 -24146.058577   3262.028974
PE31 -17184.691419   1759.519963  24042.229633   -477.370201
PE33 -20052.425180 -21648.557544   2308.248195   -464.873360
PE36   4987.904277  22141.348697 -18990.663341    454.098357
PG01  18652.910515   8919.250533  16622.979560    779.983628
PG02 -13628.080547 -22588.009214   3670.264574   -566.100039
PG03  17118.662894  -3186.539811  19946.117296    -56.585037
PG04  26402.222383   1588.948130   2702.889913   -172.800854
PG05  -7693.736294 -16205.181168 -19681.793139    -31.018701
PG06  -2588.616276 -22105.318854  14523.828948     -4.577297
PG07  13506.593692  -7159.227832 -21399.482627     22.019912
PG08  23908.520218   5710.319091 -10425.222754     -6.634254
PG09  23887.601273  -7712.871661  -8775.402443   -312.848202
PG10 -11346.288132  23825.186141   1240.412866    -39.417251
PG11  23844.640714  10482.004226   3627.680838    -52.706100
PG12 -15709.189677  -1685.448497  21079.678239     12.799349
PG13 -15979.269085 -13061.812101 -16922.131182     86.030392
PG14  13668.051007 -22764.474799   -585.253561     85.565732
PG15 -24775.412626  -3493.346474  -9788.372389   -176.255550
PG16   4989.908198  17069.590904 -19801.140294   -265.252946
PG17   9893.109807 -13769.438759  20874.414010    380.367798
PG18 -11496.779680  10009.440502 -21750.873344    341.310101
PG19   1573.826559 -14560.968858  21873.633857    -51.770016
PG20 -15244.251425  18489.048622 -11217.461263    525.161210
PG21  20203.940332  14352.450324  10830.471794     86.903501
PG22  14679.940066   6090.009759  21477.431578   -698.007362
PG23 -16323.964833  18785.090844  -9250.616995    116.083823
PG24 -20244.052631 -11988.846841  12456.739020      3.659367
PG25 -17922.619525  12778.315141  14410.497569     59.993456
PG26  -2116.475931  23815.512317 -11327.714387     30.084531
PG27  13713.868101  12442.252302 -19328.965866    -56.235223
PG28  12160.520372 -23514.468023   3719.049378    629.566655
PG29 -24790.347747   4856.544733  -8310.640317   -275.994379
PG30   5443.818125 -17816.807679 -18805.959755   -369.093324
PG31   3924.697590  23044.431001  12078.835614    -93.958232
PG32  -8344.097167  14847.118963  20430.169146     14.337585
PJ01 -30385.191730  29074.496902   8679.934268   -336.581404
PJ02 -28823.908987  25725.993026  21780.733611      0.748892
PJ03 -27987.580384  17395.346255 -21692.758947     -0.118860
PJ07 -25382.976243  33663.467333      4.673204      0.057844
PR01 -12944.053559  16442.429328  14591.736730     73.504361
PR02   7097.088071   8434.237915  23041.691283    462.912535
PR03  20131.114511  -3597.154782  15320.756213     29.167776
PR04  21644.113811 -13474.515401   -923.583265     70.038677
PR05  11166.518157 -15751.006625 -16678.353219     64.764432
PR06  -8219.584388  -7842.912166 -22850.377738    190.988337
PR07 -20356.152410   4015.730110 -14773.080168    -42.176880
PR08 -21588.165408  13527.751389   1059.886489    -56.854064
PR09  -6791.181353 -21094.134726  12589.195938     18.644413
PR10 -10828.815058  -5932.465257  22320.677257    -65.545011
PR11  -8764.979741  13783.383760  19602.823036      4.538558
PR12  -1778.384963  24964.890935   4873.818691    196.753519
PR13   6537.831610  21391.602077 -12273.804509    -49.313203
PR14  10950.403997   4913.697373 -22500.214492     59.867379
PR15   8963.055239 -14003.549237 -19331.288671    105.886260
PR16    835.759884 -25258.218385  -3981.327068    -10.225059
PR17  22803.243222   9365.674649   6496.744720    391.352722
PR18  15881.548283  -1327.650829  19956.719060     63.201541
PR19   1419.282839 -11051.176905  22953.180788   -127.947540
PR20 -16349.079947 -15796.740108  11540.137955   -431.160863
PR21 -22699.273048  -8873.147164  -7565.418972   -180.474208
PR22 -14903.393354   2069.929950 -20574.200615    -92.548669
PR23   6087.201998  14007.051163 -20430.982249 999999.999999
PR24  16957.126453  15721.538664 -10731.145948     27.826576
EOF
